*******************************************************************************
 Revised: July 31, 2013                  Sun                                 10

 PHYSICAL PROPERTIES (updated 2024-Oct-30):
  GM, km^3/s^2          = 132712440041.93938  Mass, 10^24 kg        = ~1988410
  Vol. mean radius, km  = 695700              Volume, 10^12 km^3    = 1412000
  Solar radius (IAU2015)= 695700 km           Mean density, g/cm^3  = 1.408
  Radius (photosphere)  = 696500 km           Angular diam at 1 AU  = 1919.3"
  Photosphere temp., K  = 6600 (bottom)       Photosphere temp., K  = 4400(top)
  Photospheric depth    = ~500 km             Chromospheric depth   = ~2500 km
  Flatness, f           = 0.00005             Adopted sid. rot. per.= 25.38 d
  Surface gravity       =  274.0 m/s^2        Escape speed, km/s    =  617.7
  Pole (RA,DEC), deg.   = (286.13, 63.87)     Obliquity to ecliptic = 7.25 deg.
  Solar constant (1 AU) = 1367.6 W/m^2        Luminosity, 10^24 J/s = 382.8
  Mass-energy conv rate = 4.260 x 10^9 kg/s   Effective temp, K     = 5772
  Sunspot cycle         = 11.4 yr             Cycle 24 sunspot min. = 2008 A.D.

  Motion relative to nearby stars = apex : R.A.= 271 deg.; DEC.= +30 deg.
                                    speed: 19.4 km/s (0.0112 au/day)
  Motion relative to 2.73K BB/CBR = apex : l= 264.7 +- 0.8; b= 48.2 +- 0.5 deg.
                                    speed: 369 +-11 km/s
*******************************************************************************


*******************************************************************************
Ephemeris / WWW_USER Thu Jan 29 16:40:53 2026 Pasadena, USA      / Horizons    
*******************************************************************************
Target body name: Sun (10)                        {source: DE441}
Center body name: Earth (399)                     {source: DE441}
Center-site name: GEOCENTRIC
*******************************************************************************
Start time      : A.D. 2000-Jan-01 00:00:00.0000 UT      
Stop  time      : A.D. 2050-Dec-31 00:00:00.0000 UT      
Step-size       : 1440 minutes
*******************************************************************************
Target pole/equ : IAU_SUN                         {East-longitude positive}
Target radii    : 695700.0, 695700.0, 695700.0 km {Equator_a, b, pole_c}       
Center geodetic : 0.0, 0.0, -6378.137             {E-lon(deg),Lat(deg),Alt(km)}
Center cylindric: 0.0, 0.0, 0.0                   {E-lon(deg),Dxy(km),Dz(km)}
Center pole/equ : ITRF93                          {East-longitude positive}
Center radii    : 6378.137, 6378.137, 6356.752 km {Equator_a, b, pole_c}       
Target primary  : Sun
Vis. interferer : MOON (R_eq= 1737.400) km        {source: DE441}
Rel. light bend : Sun                             {source: DE441}
Rel. lght bnd GM: 1.3271E+11 km^3/s^2                                          
Atmos refraction: NO (AIRLESS)
RA format       : DEG
Time format     : JD  
Calendar mode   : Mixed Julian/Gregorian
EOP file        : eop.260129.p260427                                           
EOP coverage    : DATA-BASED 1962-JAN-20 TO 2026-JAN-29. PREDICTS-> 2026-APR-26
Units conversion: 1 au= 149597870.700 km, c= 299792.458 km/s, 1 day= 86400.0 s 
Table cut-offs 1: Elevation (-90.0deg=NO ),Airmass (>38.000=NO), Daylight (NO )
Table cut-offs 2: Solar elongation (  0.0,180.0=NO ),Local Hour Angle( 0.0=NO )
Table cut-offs 3: RA/DEC angular rate (     0.0=NO )                           
*******************************************************************************************
Date_________JDUT     R.A.___(ICRF)___DEC  dRA*cosD d(DEC)/dt             delta      deldot
*******************************************************************************************
$$SOE
2464073.500000000      28.39049  11.64508  137.3150  51.02332  1.00474619211840   0.4686550
2464074.500000000      29.32546  11.98513  137.4040  50.52812  1.00501547749387   0.4639128
2464075.500000000      30.26221  12.32187  137.4948  50.01862  1.00528212971309   0.4595502
2464076.500000000      31.20077  12.65522  137.5879  49.49508  1.00554638581475   0.4556194
2464077.500000000      32.14118  12.98507  137.6841  48.95775  1.00580849801317   0.4521232
2464078.500000000      33.08350  13.31135  137.7837  48.40684  1.00606870959070   0.4490306
2464079.500000000      34.02777  13.63395  137.8870  47.84255  1.00632723982793   0.4462915
2464080.500000000      34.97403  13.95280  137.9943  47.26501  1.00658427616396   0.4438471
2464081.500000000      35.92234  14.26779  138.1056  46.67437  1.00683997092952   0.4416353
2464082.500000000      36.87275  14.57885  138.2211  46.07074  1.00709444034590   0.4395933
2464083.500000000      37.82529  14.88589  138.3406  45.45423  1.00734776426362   0.4376580
2464084.500000000      38.78001  15.18882  138.4642  44.82494  1.00759998587639   0.4357654
2464085.500000000      39.73696  15.48756  138.5918  44.18297  1.00785111120608   0.4338507
2464086.500000000      40.69617  15.78202  138.7231  43.52840  1.00810110847796   0.4318480
2464087.500000000      41.65768  16.07212  138.8580  42.86132  1.00834990761307   0.4296906
2464088.500000000      42.62154  16.35778  138.9963  42.18182  1.00859740000749   0.4273118
2464089.500000000      43.58776  16.63891  139.1377  41.48998  1.00884343862126   0.4246452
2464090.500000000      44.55639  16.91543  139.2818  40.78587  1.00908783825116   0.4216252
2464091.500000000      45.52743  17.18727  139.4282  40.06957  1.00933037580475   0.4181862
2464092.500000000      46.50092  17.45433  139.5765  39.34115  1.00957079050538   0.4142631
2464093.500000000      47.47687  17.71653  139.7262  38.60069  1.00980878429646   0.4097923
2464094.500000000      48.45528  17.97380  139.8766  37.84824  1.01004402329387   0.4047142
2464095.500000000      49.43617  18.22606  140.0271  37.08386  1.01027614190452   0.3989800
2464096.500000000      50.41952  18.47323  140.1766  36.30756  1.01050475196155   0.3925624
2464097.500000000      51.40533  18.71522  140.3244  35.51938  1.01072945941948   0.3854711
2464098.500000000      52.39357  18.95196  140.4693  34.71934  1.01094989001990   0.3777672
2464099.500000000      53.38421  19.18336  140.6105  33.90746  1.01116572225314   0.3695726
2464100.500000000      54.37721  19.40935  140.7472  33.08384  1.01137672142832   0.3610637
2464101.500000000      55.37254  19.62986  140.8790  32.24864  1.01158276518043   0.3524478
2464102.500000000      56.37014  19.84479  141.0058  31.40207  1.01178385156677   0.3439285
2464103.500000000      57.36997  20.05408  141.1281  30.54445  1.01198008693343   0.3356727
2464104.500000000      58.37198  20.25766  141.2462  29.67612  1.01217165855482   0.3277921
2464105.500000000      59.37612  20.45545  141.3607  28.79742  1.01235880162106   0.3203419
2464106.500000000      60.38235  20.64738  141.4720  27.90872  1.01254176940337   0.3133321
2464107.500000000      61.39063  20.83338  141.5805  27.01036  1.01272081136195   0.3067420
2464108.500000000      62.40092  21.01341  141.6864  26.10267  1.01289615979832   0.3005347
2464109.500000000      63.41316  21.18738  141.7899  25.18597  1.01306802318970   0.2946659
2464110.500000000      64.42733  21.35524  141.8911  24.26058  1.01323658362561   0.2890890
2464111.500000000      65.44337  21.51693  141.9900  23.32679  1.01340199608387   0.2837568
2464112.500000000      66.46123  21.67241  142.0866  22.38494  1.01356438796954   0.2786208
2464113.500000000      67.48088  21.82160  142.1810  21.43532  1.01372385803114   0.2736300
2464114.500000000      68.50225  21.96447  142.2731  20.47825  1.01388047433308   0.2687288
2464115.500000000      69.52531  22.10096  142.3630  19.51406  1.01403427137657   0.2638564
2464116.500000000      70.54999  22.23102  142.4504  18.54307  1.01418524672573   0.2589459
2464117.500000000      71.57623  22.35462  142.5353  17.56561  1.01433335761129   0.2539245
2464118.500000000      72.60399  22.47170  142.6175  16.58202  1.01447851796118   0.2487153
2464119.500000000      73.63320  22.58223  142.6968  15.59263  1.01462059618829   0.2432379
2464120.500000000      74.66379  22.68616  142.7728  14.59778  1.01475941393199   0.2374109
2464121.500000000      75.69570  22.78346  142.8452  13.59781  1.01489474591536   0.2311538
2464122.500000000      76.72885  22.87410  142.9136  12.59306  1.01502632124811   0.2243897
2464123.500000000      77.76317  22.95804  142.9772  11.58389  1.01515382692252   0.2170506
2464124.500000000      78.79857  23.03525  143.0356  10.57065  1.01527691483936   0.2090846
2464125.500000000      79.83496  23.10572  143.0877  9.553675  1.01539521418743   0.2004670
2464126.500000000      80.87225  23.16940  143.1329  8.533333  1.01550835086716   0.1912134
2464127.500000000      81.91034  23.22628  143.1701  7.509979  1.01561597426966   0.1813910
2464128.500000000      82.94910  23.27634  143.1987  6.483980  1.01571778884419   0.1711228
2464129.500000000      83.98843  23.31957  143.2181  5.455719  1.01581358436935   0.1605786
2464130.500000000      85.02820  23.35593  143.2280  4.425591  1.01590325685518   0.1499519
2464131.500000000      86.06830  23.38544  143.2287  3.394010  1.01598681370824   0.1394299
2464132.500000000      87.10860  23.40806  143.2206  2.361400  1.01606436207904   0.1291671
2464133.500000000      88.14899  23.42380  143.2041  1.328194  1.01613608519021   0.1192713
2464134.500000000      89.18935  23.43265  143.1799  0.294825  1.01620221444813   0.1098025
2464135.500000000      90.22959  23.43462  143.1487  -0.73828  1.01626300424437   0.1007822
2464136.500000000      91.26958  23.42970  143.1110  -1.77069  1.01631871318704   0.0922056
2464137.500000000      92.30925  23.41789  143.0671  -2.80199  1.01636959232688   0.0840530
2464138.500000000      93.34848  23.39921  143.0176  -3.83177  1.01641587898637   0.0762975
2464139.500000000      94.38718  23.37366  142.9627  -4.85964  1.01645779411406   0.0689097
